{
  "type": "FeatureCollection",
  "features": [
    {
      "type": "Feature",
      "properties": {
        "norad_id": 34875,
        "name": "COSMOS 2251 DEB",
        "group": "cosmos-2251-debris",
        "lat": -35.156602107388835,
        "lon": 127.92059769095306,
        "alt_km": 729.4466466563081,
        "timestamp": "2025-12-22T16:55:17.860203+00:00",
        "meta_object_name": "COSMOS 2251 DEB",
        "meta_object_id": "1993-036ACN",
        "meta_epoch": "2025-12-19T11:28:39.014112",
        "meta_mean_motion": 14.48947014,
        "meta_eccentricity": 0.0016196,
        "meta_inclination": 74.0433,
        "meta_ra_of_asc_node": 145.5897,
        "meta_arg_of_pericenter": 268.763,
        "meta_mean_anomaly": 149.3216,
        "meta_ephemeris_type": 0,
        "meta_classification_type": "U",
        "meta_norad_cat_id": 34875,
        "meta_element_set_no": 999,
        "meta_rev_at_epoch": 87853,
        "meta_bstar": 0.00033791,
        "meta_mean_motion_dot": 1.255e-05,
        "meta_mean_motion_ddot": 0,
        "tle_line1": "1 34875U 93036ACN 25353.47822933  .00001255  00000+0  33791-3 0  9992",
        "tle_line2": "2 34875  74.0433 145.5897 0016196 268.7630 149.3216 14.48947014878533"
      },
      "geometry": {
        "type": "Point",
        "coordinates": [
          127.92059769095306,
          -35.156602107388835
        ]
      }
    },
    {
      "type": "Feature",
      "properties": {
        "norad_id": 34878,
        "name": "COSMOS 2251 DEB",
        "group": "cosmos-2251-debris",
        "lat": -62.64213583865846,
        "lon": -2.2526085547322126,
        "alt_km": 1033.4459132792335,
        "timestamp": "2025-12-22T16:55:17.860227+00:00",
        "meta_object_name": "COSMOS 2251 DEB",
        "meta_object_id": "1993-036ACR",
        "meta_epoch": "2025-12-21T20:42:06.269184",
        "meta_mean_motion": 13.44202336,
        "meta_eccentricity": 0.04356411,
        "meta_inclination": 73.9646,
        "meta_ra_of_asc_node": 32.8499,
        "meta_arg_of_pericenter": 14.5745,
        "meta_mean_anomaly": 167.3818,
        "meta_ephemeris_type": 0,
        "meta_classification_type": "U",
        "meta_norad_cat_id": 34878,
        "meta_element_set_no": 999,
        "meta_rev_at_epoch": 81395,
        "meta_bstar": 0.00060891451,
        "meta_mean_motion_dot": 6.05e-06,
        "meta_mean_motion_ddot": 0,
        "tle_line1": "1 34878U 93036ACR 25355.86257256  .00000605  00000+0  60891-3 0  9999",
        "tle_line2": "2 34878  73.9646  32.8499 0435641  14.5745 167.3818 13.44202336813959"
      },
      "geometry": {
        "type": "Point",
        "coordinates": [
          -2.2526085547322126,
          -62.64213583865846
        ]
      }
    },
    {
      "type": "Feature",
      "properties": {
        "norad_id": 34882,
        "name": "COSMOS 2251 DEB",
        "group": "cosmos-2251-debris",
        "lat": 0.6447579972677597,
        "lon": -153.27715689229152,
        "alt_km": 639.2930118100248,
        "timestamp": "2025-12-22T16:55:17.860238+00:00",
        "meta_object_name": "COSMOS 2251 DEB",
        "meta_object_id": "1993-036ACV",
        "meta_epoch": "2025-12-21T21:12:22.857696",
        "meta_mean_motion": 14.61612443,
        "meta_eccentricity": 0.00832888,
        "meta_inclination": 74.045,
        "meta_ra_of_asc_node": 208.1086,
        "meta_arg_of_pericenter": 332.8395,
        "meta_mean_anomaly": 26.8425,
        "meta_ephemeris_type": 0,
        "meta_classification_type": "U",
        "meta_norad_cat_id": 34882,
        "meta_element_set_no": 999,
        "meta_rev_at_epoch": 88658,
        "meta_bstar": 0.00011851628,
        "meta_mean_motion_dot": 5.86e-06,
        "meta_mean_motion_ddot": 0,
        "tle_line1": "1 34882U 93036ACV 25355.88359789  .00000586  00000+0  11852-3 0  9991",
        "tle_line2": "2 34882  74.0450 208.1086 0083288 332.8395  26.8425 14.61612443886588"
      },
      "geometry": {
        "type": "Point",
        "coordinates": [
          -153.27715689229152,
          0.6447579972677597
        ]
      }
    },
    {
      "type": "Feature",
      "properties": {
        "norad_id": 34883,
        "name": "COSMOS 2251 DEB",
        "group": "cosmos-2251-debris",
        "lat": 47.93560426219854,
        "lon": 62.428439049356705,
        "alt_km": 782.5808748551499,
        "timestamp": "2025-12-22T16:55:17.860248+00:00",
        "meta_object_name": "COSMOS 2251 DEB",
        "meta_object_id": "1993-036ACW",
        "meta_epoch": "2025-12-18T13:27:07.209504",
        "meta_mean_motion": 14.51672805,
        "meta_eccentricity": 0.00951028,
        "meta_inclination": 74.2022,
        "meta_ra_of_asc_node": 51.868,
        "meta_arg_of_pericenter": 236.3156,
        "meta_mean_anomaly": 122.8912,
        "meta_ephemeris_type": 0,
        "meta_classification_type": "U",
        "meta_norad_cat_id": 34883,
        "meta_element_set_no": 999,
        "meta_rev_at_epoch": 86524,
        "meta_bstar": 0.0028915699,
        "meta_mean_motion_dot": 0.00012297,
        "meta_mean_motion_ddot": 0,
        "tle_line1": "1 34883U 93036ACW 25352.56050011  .00012297  00000+0  28916-2 0  9990",
        "tle_line2": "2 34883  74.2022  51.8680 0095102 236.3156 122.8912 14.51672805865245"
      },
      "geometry": {
        "type": "Point",
        "coordinates": [
          62.428439049356705,
          47.93560426219854
        ]
      }
    },
    {
      "type": "Feature",
      "properties": {
        "norad_id": 34884,
        "name": "COSMOS 2251 DEB",
        "group": "cosmos-2251-debris",
        "lat": -65.01103144189327,
        "lon": -1.1781785398711186,
        "alt_km": 604.0410559859656,
        "timestamp": "2025-12-22T16:55:17.860259+00:00",
        "meta_object_name": "COSMOS 2251 DEB",
        "meta_object_id": "1993-036ACX",
        "meta_epoch": "2025-12-21T14:24:44.756928",
        "meta_mean_motion": 14.90421779,
        "meta_eccentricity": 0.0002788,
        "meta_inclination": 74.0169,
        "meta_ra_of_asc_node": 38.9847,
        "meta_arg_of_pericenter": 42.2579,
        "meta_mean_anomaly": 83.2158,
        "meta_ephemeris_type": 0,
        "meta_classification_type": "U",
        "meta_norad_cat_id": 34884,
        "meta_element_set_no": 999,
        "meta_rev_at_epoch": 87937,
        "meta_bstar": 0.0017845,
        "meta_mean_motion_dot": 0.00017403,
        "meta_mean_motion_ddot": 0,
        "tle_line1": "1 34884U 93036ACX 25355.60051802  .00017403  00000+0  17845-2 0  9991",
        "tle_line2": "2 34884  74.0169  38.9847 0002788  42.2579  83.2158 14.90421779879374"
      },
      "geometry": {
        "type": "Point",
        "coordinates": [
          -1.1781785398711186,
          -65.01103144189327
        ]
      }
    },
    {
      "type": "Feature",
      "properties": {
        "norad_id": 34885,
        "name": "COSMOS 2251 DEB",
        "group": "cosmos-2251-debris",
        "lat": -44.118655635004885,
        "lon": 0.38043659667364055,
        "alt_km": 717.0691808345346,
        "timestamp": "2025-12-22T16:55:17.860269+00:00",
        "meta_object_name": "COSMOS 2251 DEB",
        "meta_object_id": "1993-036ACY",
        "meta_epoch": "2025-12-21T20:33:37.016352",
        "meta_mean_motion": 14.51546235,
        "meta_eccentricity": 0.00151016,
        "meta_inclination": 74.0299,
        "meta_ra_of_asc_node": 165.855,
        "meta_arg_of_pericenter": 251.2816,
        "meta_mean_anomaly": 223.5837,
        "meta_ephemeris_type": 0,
        "meta_classification_type": "U",
        "meta_norad_cat_id": 34885,
        "meta_element_set_no": 999,
        "meta_rev_at_epoch": 87611,
        "meta_bstar": 0.00056378804,
        "meta_mean_motion_dot": 2.232e-05,
        "meta_mean_motion_ddot": 0,
        "tle_line1": "1 34885U 93036ACY 25355.85667843  .00002232  00000+0  56379-3 0  9997",
        "tle_line2": "2 34885  74.0299 165.8550 0015101 251.2816 223.5837 14.51546235876113"
      },
      "geometry": {
        "type": "Point",
        "coordinates": [
          0.38043659667364055,
          -44.118655635004885
        ]
      }
    },
    {
      "type": "Feature",
      "properties": {
        "norad_id": 34886,
        "name": "COSMOS 2251 DEB",
        "group": "cosmos-2251-debris",
        "lat": -33.5080917685161,
        "lon": -9.641046712906146,
        "alt_km": 465.12283369689067,
        "timestamp": "2025-12-22T16:55:17.860280+00:00",
        "meta_object_name": "COSMOS 2251 DEB",
        "meta_object_id": "1993-036ACZ",
        "meta_epoch": "2025-12-19T05:20:10.106016",
        "meta_mean_motion": 15.39455892,
        "meta_eccentricity": 0.0031395,
        "meta_inclination": 73.9504,
        "meta_ra_of_asc_node": 166.9286,
        "meta_arg_of_pericenter": 349.772,
        "meta_mean_anomaly": 10.2844,
        "meta_ephemeris_type": 0,
        "meta_classification_type": "U",
        "meta_norad_cat_id": 34886,
        "meta_element_set_no": 999,
        "meta_rev_at_epoch": 63098,
        "meta_bstar": 0.0012728,
        "meta_mean_motion_dot": 0.00051055,
        "meta_mean_motion_ddot": 0,
        "tle_line1": "1 34886U 93036ACZ 25353.22233919  .00051055  00000+0  12728-2 0  9996",
        "tle_line2": "2 34886  73.9504 166.9286 0031395 349.7720  10.2844 15.39455892630986"
      },
      "geometry": {
        "type": "Point",
        "coordinates": [
          -9.641046712906146,
          -33.5080917685161
        ]
      }
    }
  ]
}